NORAD_CAT_ID,OBJECT_NAME,OBJECT_TYPE,EPOCH,MEAN_MOTION,ECCENTRICITY,INCLINATION,RA_OF_ASC_NODE,ARG_OF_PERICENTER,MEAN_ANOMALY,BSTAR,MEAN_MOTION_DOT,MEAN_MOTION_DDOT,TLE_LINE0,TLE_LINE1,TLE_LINE2,SEMIMAJOR_AXIS,PERIOD,APOGEE,PERIGEE,DECAYED
53988.0,STARLINK-5113,PAYLOAD,2023-11-03 19:49:45,15.08851977,0.0001613,53.218,100.8449,82.682,277.4355,0.00013531,1.867e-05,0.0,0 STARLINK-5113,1 53988U 22125AA  23307.82622632  .00001867  00000-0  13531-3 0  9999,2 53988  53.2180 100.8449 0001613  82.6820 277.4355 15.08851977 60175,6917.844,95.437,540.825,538.593,0.0
53988.0,STARLINK-5113,PAYLOAD,2023-11-04 03:46:42,15.0884276,0.0001803,53.2183,99.3564,83.3666,276.7531,5.9455e-05,6.58e-06,0.0,0 STARLINK-5113,1 53988U 22125AA  23308.15743366  .00000658  00000-0  59455-4 0  9997,2 53988  53.2183  99.3564 0001803  83.3666 276.7531 15.08842760 60229,6917.872,95.437,540.984,538.49,0.0
53988.0,STARLINK-5113,PAYLOAD,2023-11-04 10:08:15,15.08836851,0.0001809,53.2168,98.1692,81.3294,278.7903,9.2481e-05,1.184e-05,0.0,0 STARLINK-5113,1 53988U 22125AA  23308.42239678  .00001184  00000-0  92481-4 0  9994,2 53988  53.2168  98.1692 0001809  81.3294 278.7903 15.08836851 60186,6917.89,95.438,541.006,538.504,0.0
53988.0,STARLINK-5113,PAYLOAD,2023-11-04 16:29:47,15.08840429,0.0001603,53.2162,96.9767,93.9568,266.1607,0.00011326,1.515e-05,0.0,0 STARLINK-5113,1 53988U 22125AA  23308.68735256  .00001515  00000-0  11326-3 0  9991,2 53988  53.2162  96.9767 0001603  93.9568 266.1607 15.08840429 60227,6917.879,95.438,540.853,538.635,0.0
53988.0,STARLINK-5113,PAYLOAD,2023-11-05 09:59:01,15.08847222,0.0001483,53.2166,93.7078,90.3929,269.7233,6.0632e-05,6.77e-06,0.0,0 STARLINK-5113,1 53988U 22125AA  23309.41599000  .00000677  00000-0  60632-4 0  9991,2 53988  53.2166  93.7078 0001483  90.3929 269.7233 15.08847222 60412,6917.858,95.437,540.749,538.697,0.0
53988.0,STARLINK-5113,PAYLOAD,2023-11-05 14:45:10,15.08850923,0.0001558,53.2169,92.8165,88.6769,271.4401,8.108e-05,1.003e-05,0.0,0 STARLINK-5113,1 53988U 22125AA  23309.61470652  .00001003  00000-0  81080-4 0  9998,2 53988  53.2169  92.8165 0001558  88.6769 271.4401 15.08850923 60360,6917.847,95.437,540.79,538.634,0.0
53988.0,STARLINK-5113,PAYLOAD,2023-11-05 16:20:33,15.08854802,0.0001499,53.2175,92.5185,91.8916,268.2248,0.00012494,1.702e-05,0.0,0 STARLINK-5113,1 53988U 22125AA  23309.68094254  .00001702  00000-0  12494-3 0  9993,2 53988  53.2175  92.5185 0001499  91.8916 268.2248 15.08854802 60453,6917.835,95.437,540.737,538.663,0.0
53988.0,STARLINK-5113,PAYLOAD,2023-11-06 14:35:59,15.08801377,0.0001532,53.2167,88.3554,63.3802,296.7347,-0.00055137,-9.043e-05,0.0,0 STARLINK-5113,1 53988U 22125AA  23310.60832642 -.00009043  00000-0 -55137-3 0  9997,2 53988  53.2167  88.3554 0001532  63.3802 296.7347 15.08801377 60515,6917.998,95.44,540.923,538.804,0.0
53988.0,STARLINK-5113,PAYLOAD,2023-11-06 16:11:22,15.08797709,0.0001341,53.2154,88.0574,92.909,267.2056,-0.00060266,-9.855e-05,0.0,0 STARLINK-5113,1 53988U 22125AA  23310.67456776 -.00009855  00000-0 -60266-3 0  9994,2 53988  53.2154  88.0574 0001341  92.9090 267.2056 15.08797709 60608,6918.01,95.44,540.802,538.947,0.0
53988.0,STARLINK-5113,PAYLOAD,2023-11-07 09:40:38,15.08803354,0.0001381,53.2168,84.7884,95.159,264.9559,-0.00043572,-7.209e-05,0.0,0 STARLINK-5113,1 53988U 22125AA  23311.40321874 -.00007209  00000-0 -43572-3 0  9998,2 53988  53.2168  84.7884 0001381  95.1590 264.9559 15.08803354 60712,6917.992,95.44,540.813,538.902,0.0
53988.0,STARLINK-5113,PAYLOAD,2023-11-07 14:26:47,15.08813876,0.0001539,53.217,83.8949,98.7339,261.3828,-0.00013154,-2.379e-05,0.0,0 STARLINK-5113,1 53988U 22125AA  23311.60193990 -.00002379  00000-0 -13154-3 0  9992,2 53988  53.2170  83.8949 0001539  98.7339 261.3828 15.08813876 60666,6917.96,95.439,540.89,538.761,0.0
53988.0,STARLINK-5113,PAYLOAD,2023-11-07 16:02:10,15.08816248,0.0001336,53.2167,83.5992,87.1213,272.9932,-6.7596e-05,-1.363e-05,0.0,0 STARLINK-5113,1 53988U 22125AA  23311.66817889 -.00001363  00000-0 -67596-4 0  9990,2 53988  53.2167  83.5992 0001336  87.1213 272.9932 15.08816248 60755,6917.953,95.439,540.742,538.894,0.0
53988.0,STARLINK-5113,PAYLOAD,2023-11-08 14:17:34,15.08850994,0.0001281,53.2168,79.4329,81.9544,278.1594,0.0011006,0.00017277,0.0,0 STARLINK-5113,1 53988U 22125AA  23312.59554045  .00017277  00000-0  11006-2 0  9997,2 53988  53.2168  79.4329 0001281  81.9544 278.1594 15.08850994 60817,6917.847,95.437,540.598,538.826,0.0
53988.0,STARLINK-5113,PAYLOAD,2023-11-09 01:25:16,15.08850793,0.0001367,53.2175,77.3571,97.309,262.8058,0.00064241,9.954e-05,0.0,0 STARLINK-5113,1 53988U 22125AA  23313.05921699  .00009954  00000-0  64241-3 0  9995,2 53988  53.2175  77.3571 0001367  97.3090 262.8058 15.08850793 60961,6917.847,95.437,540.658,538.767,0.0
53988.0,STARLINK-5113,PAYLOAD,2023-11-09 14:08:20,15.08860481,0.0001486,53.2177,74.9808,99.8768,260.2391,0.00014461,2.015e-05,0.0,0 STARLINK-5113,1 53988U 22125AA  23313.58912641  .00002015  00000-0  14461-3 0  9990,2 53988  53.2177  74.9808 0001486  99.8768 260.2391 15.08860481 60967,6917.818,95.436,540.711,538.655,0.0
53988.0,STARLINK-5113,PAYLOAD,2023-11-09 15:43:43,15.08860741,0.0001373,53.2174,74.6766,101.8407,258.2739,0.00045269,6.928e-05,0.0,0 STARLINK-5113,1 53988U 22125AA  23313.65536509  .00006928  00000-0  45269-3 0  9990,2 53988  53.2174  74.6766 0001373 101.8407 258.2739 15.08860741 60976,6917.817,95.436,540.632,538.732,0.0
53988.0,STARLINK-5113,PAYLOAD,2023-11-10 12:23:44,15.08853127,0.0001555,53.2183,70.816,92.9223,267.1947,-4.0952e-05,-9.4e-06,0.0,0 STARLINK-5113,1 53988U 22125AA  23314.51648380 -.00000940  00000-0 -40952-4 0  9992,2 53988  53.2183  70.8160 0001555  92.9223 267.1947 15.08853127 61184,6917.84,95.437,540.781,538.63,0.0
53988.0,STARLINK-5113,PAYLOAD,2023-11-10 13:59:07,15.08854256,0.0001589,53.2178,70.5155,88.5839,271.5335,-9.8235e-06,-4.44e-06,0.0,0 STARLINK-5113,1 53988U 22125AA  23314.58272243 -.00000444  00000-0 -98235-5 0  9997,2 53988  53.2178  70.5155 0001589  88.5839 271.5335 15.08854256 61117,6917.837,95.437,540.801,538.603,0.0
53988.0,STARLINK-5113,PAYLOAD,2023-11-10 15:34:30,15.08855598,0.0001556,53.2178,70.2188,85.9593,274.1577,1.3871e-05,-6.7e-07,0.0,0 STARLINK-5113,1 53988U 22125AA  23314.64896134 -.00000067  00000-0  13871-4 0  9997,2 53988  53.2178  70.2188 0001556  85.9593 274.1577 15.08855598 61120,6917.833,95.437,540.774,538.621,0.0
53988.0,STARLINK-5113,PAYLOAD,2023-11-11 12:14:31,15.08843828,0.0001524,53.2175,66.3523,86.3868,273.7299,-1.9205e-05,-5.94e-06,0.0,0 STARLINK-5113,1 53988U 22125AA  23315.51008369 -.00000594  00000-0 -19205-4 0  9992,2 53988  53.2175  66.3523 0001524  86.3868 273.7299 15.08843828 61333,6917.869,95.437,540.788,538.679,0.0
53988.0,STARLINK-5113,PAYLOAD,2023-11-11 13:49:53,15.08849174,0.0001567,53.2183,66.0514,96.7719,263.3452,-4.9475e-05,-1.076e-05,0.0,0 STARLINK-5113,1 53988U 22125AA  23315.57631832 -.00001076  00000-0 -49475-4 0  9993,2 53988  53.2183  66.0514 0001567  96.7719 263.3452 15.08849174 61264,6917.852,95.437,540.801,538.633,0.0
53988.0,STARLINK-5113,PAYLOAD,2023-11-12 13:40:41,15.08846487,0.0001654,53.2188,61.5931,97.9464,262.1716,4.3564e-05,4.05e-06,0.0,0 STARLINK-5113,1 53988U 22125AA  23316.56992224  .00000405  00000-0  43564-4 0  9994,2 53988  53.2188  61.5931 0001654  97.9464 262.1716 15.08846487 61410,6917.861,95.437,540.87,538.581,0.0
53988.0,STARLINK-5113,PAYLOAD,2023-11-13 11:56:04,15.08852061,0.0001505,53.2186,57.431,95.6993,264.4171,7.19e-05,8.57e-06,0.0,0 STARLINK-5113,1 53988U 22125AA  23317.49727754  .00000857  00000-0  71900-4 0  9997,2 53988  53.2186  57.4310 0001505  95.6993 264.4171 15.08852061 61550,6917.844,95.437,540.75,538.667,0.0
53988.0,STARLINK-5113,PAYLOAD,2023-11-13 13:31:27,15.08853035,0.0001534,53.2188,57.1338,96.2058,263.9109,7.7299e-05,9.43e-06,0.0,0 STARLINK-5113,1 53988U 22125AA  23317.56351661  .00000943  00000-0  77299-4 0  9998,2 53988  53.2188  57.1338 0001534  96.2058 263.9109 15.08853035 61568,6917.841,95.437,540.767,538.644,0.0
53988.0,STARLINK-5113,PAYLOAD,2023-11-14 11:46:52,15.08831381,0.000176,53.2191,52.9731,103.2073,256.9116,-5.6866e-05,-1.193e-05,0.0,0 STARLINK-5113,1 53988U 22125AA  23318.49088929 -.00001193  00000-0 -56866-4 0  9992,2 53988  53.2191  52.9731 0001760 103.2073 256.9116 15.08831381 61783,6917.907,95.438,540.989,538.554,0.0
53988.0,STARLINK-5113,PAYLOAD,2023-11-14 13:22:16,15.08832555,0.00014,53.219,52.675,98.9971,261.118,1.8132e-05,1e-08,0.0,0 STARLINK-5113,1 53988U 22125AA  23318.55713165  .00000001  00000-0  18132-4 0  9995,2 53988  53.2190  52.6750 0001400  98.9971 261.1180 15.08832555 61714,6917.903,95.438,540.737,538.8,0.0
53988.0,STARLINK-5113,PAYLOAD,2023-11-14 16:33:02,15.08835336,0.0001386,53.2184,52.078,98.4223,261.6926,1.5898e-05,-3.5e-07,0.0,0 STARLINK-5113,1 53988U 22125AA  23318.68961029 -.00000035  00000-0  15898-4 0  9997,2 53988  53.2184  52.0780 0001386  98.4223 261.6926 15.08835336 61737,6917.895,95.438,540.718,538.801,0.0
53988.0,STARLINK-5113,PAYLOAD,2023-11-15 11:37:39,15.08844599,0.0001355,53.2192,48.5092,95.4176,264.6971,2.4756e-05,1.06e-06,0.0,0 STARLINK-5113,1 53988U 22125AA  23319.48448586  .00000106  00000-0  24756-4 0  9995,2 53988  53.2192  48.5092 0001355  95.4176 264.6971 15.08844599 61938,6917.866,95.437,540.669,538.794,0.0
53988.0,STARLINK-5113,PAYLOAD,2023-11-16 09:53:04,15.08829992,0.0001411,53.2199,44.3474,96.2948,263.8205,8.3736e-05,1.045e-05,0.0,0 STARLINK-5113,1 53988U 22125AA  23320.41185622  .00001045  00000-0  83736-4 0  9995,2 53988  53.2199  44.3474 0001411  96.2948 263.8205 15.08829992 61999,6917.911,95.438,540.752,538.8,0.0
53988.0,STARLINK-5113,PAYLOAD,2023-11-16 14:39:13,15.08834221,0.0001615,53.2196,43.4575,94.7912,265.3265,0.00012279,1.666e-05,0.0,0 STARLINK-5113,1 53988U 22125AA  23320.61057412  .00001666  00000-0  12279-3 0  9994,2 53988  53.2196  43.4575 0001615  94.7912 265.3265 15.08834221 62106,6917.898,95.438,540.88,538.646,0.0
